{
    "links": {
        "self": "http://www.neowsapp.com/rest/v1/neo/3842899?api_key=iIulBulltgU6a56xZRHN4H3l9WmuAYTsLGpBGhQ2"
    },
    "id": "3842899",
    "neo_reference_id": "3842899",
    "name": "(2019 LM5)",
    "designation": "2019 LM5",
    "nasa_jpl_url": "http://ssd.jpl.nasa.gov/sbdb.cgi?sstr=3842899",
    "absolute_magnitude_h": 23.1,
    "estimated_diameter": {
        "kilometers": {
            "estimated_diameter_min": 0.063760979,
            "estimated_diameter_max": 0.1425738833
        },
        "meters": {
            "estimated_diameter_min": 63.7609789875,
            "estimated_diameter_max": 142.5738833281
        },
        "miles": {
            "estimated_diameter_min": 0.0396192233,
            "estimated_diameter_max": 0.0885912765
        },
        "feet": {
            "estimated_diameter_min": 209.1895703015,
            "estimated_diameter_max": 467.7620993781
        }
    },
    "is_potentially_hazardous_asteroid": false,
    "close_approach_data": [
        {
            "close_approach_date": "2019-05-23",
            "close_approach_date_full": "2019-May-23 08:30",
            "epoch_date_close_approach": 1558600200000,
            "relative_velocity": {
                "kilometers_per_second": "9.2837498883",
                "kilometers_per_hour": "33421.4995980404",
                "miles_per_hour": "20766.8201252379"
            },
            "miss_distance": {
                "astronomical": "0.1128708922",
                "lunar": "43.9067770658",
                "kilometers": "16885245.058119614",
                "miles": "10492004.7583901132"
            },
            "orbiting_body": "Earth"
        }
    ],
    "orbital_data": {
        "orbit_id": "1",
        "orbit_determination_date": "2019-06-19 11:12:10",
        "first_observation_date": "2019-06-06",
        "last_observation_date": "2019-06-15",
        "data_arc_in_days": 9,
        "observations_used": 27,
        "orbit_uncertainty": "9",
        "minimum_orbit_intersection": ".0352119",
        "jupiter_tisserand_invariant": "3.637",
        "epoch_osculation": "2458644.5",
        "eccentricity": ".4878204860190594",
        "semi_major_axis": "2.023904862463368",
        "inclination": "11.7357728698432",
        "ascending_node_longitude": "84.27332759025789",
        "orbital_period": "1051.679885302095",
        "perihelion_distance": "1.03660260880015",
        "perihelion_argument": "161.5406875619717",
        "aphelion_distance": "3.011207116126585",
        "perihelion_time": "2458626.379319741635",
        "mean_anomaly": "6.202880728423875",
        "mean_motion": ".3423094850735781",
        "equinox": "J2000",
        "orbit_class": {
            "orbit_class_type": "AMO",
            "orbit_class_description": "Near-Earth asteroid orbits similar to that of 1221 Amor",
            "orbit_class_range": "1.017 AU < q (perihelion) < 1.3 AU"
        }
    },
    "is_sentry_object": false
}